ALICE                   
1 39467U 13072F   26068.66905005  .00012311  00000+0  62398-3 0  9993
2 39467 120.4625 282.3278 0159202 246.5562 111.8695 15.07155655100262
STARLINK-31964          
1 59895U 24100L   26068.51189596 -.00001863  00000+0 -58208-4 0  9995
2 59895  42.9965 126.0560 0000771 288.8537  71.2231 15.27573524101086
